{"type": "FeatureCollection", "features": [{"type": "Feature", "properties": {"code": "ASP", "name": "Avenal State Prison", "slug": "avenal-state-prison", "risk_category": "Lowest", "population": 3891}, "geometry": {"type": "Polygon", "coordinates": [[[-120.127835274578, 35.9749501570242], [-120.127794895918, 35.9752684369888], [-120.126010159841, 35.9775681365603], [-120.125723787822, 35.9776910855752], [-120.122470960666, 35.9776242497593], [-120.121905806907, 35.9774669061728], [-120.119270465959, 35.9759854053023], [-120.119066926897, 35.9757088988467], [-120.118728165772, 35.9731056412124], [-120.118844236772, 35.9726293530622], [-120.120315510552, 35.970287188403], [-120.120594784222, 35.9701364296525], [-120.123949925449, 35.969969314932], [-120.124285431927, 35.970087234938], [-120.126640536032, 35.9723754105968], [-120.127835274578, 35.9749501570242]]]}}, {"type": "Feature", "properties": {"code": "CCI", "name": "California Correctional Institution", "slug": "california-correctional-institution", "risk_category": "Moderate", "population": 2434}, "geometry": {"type": "MultiPolygon", "coordinates": [[[[-118.571515730866, 35.1098216832241], [-118.57144205031, 35.1096719685866], [-118.571228137568, 35.1097322429487], [-118.570153826338, 35.1092111568694], [-118.569778291935, 35.10890005979], [-118.569578640642, 35.1085247969818], [-118.569533482085, 35.1082292518785], [-118.569659451922, 35.1079434266479], [-118.56966182883, 35.1076206581669], [-118.569958928861, 35.1070626153474], [-118.570384374739, 35.1072065005796], [-118.57056025785, 35.107093725595], [-118.57098095171, 35.1072453899628], [-118.571014226625, 35.1074339957823], [-118.570876372247, 35.1074884398397], [-118.570838344414, 35.1076051025935], [-118.570990459342, 35.1076439910774], [-118.572164597118, 35.1071053916006], [-118.572107553121, 35.1070003939531], [-118.572411783877, 35.1068603973895], [-118.572903781384, 35.106770954416], [-118.573405284726, 35.1068020637643], [-118.573859252602, 35.1069420621265], [-118.574389278842, 35.1073620536159], [-118.574584176319, 35.1077762103039], [-118.574474843939, 35.1078987060605], [-118.5746364656, 35.1079862038003], [-118.574615075225, 35.1083070270477], [-118.57428232337, 35.1088981145564], [-118.573885397693, 35.1091897691925], [-118.572642333177, 35.1097730739682], [-118.572079032022, 35.1098780689178], [-118.571515730866, 35.1098216832241]]], [[[-118.566051117365, 35.1148121849345], [-118.568712654665, 35.1130728646211], [-118.56909151656, 35.1131743558119], [-118.571004362861, 35.1151605885904], [-118.570977742928, 35.1154094480876], [-118.568332843086, 35.1171607725516], [-118.568026711164, 35.1171343315842], [-118.566013088633, 35.115075044178], [-118.566051117365, 35.1148121849345]]], [[[-118.567122202727, 35.1023881192164], [-118.567110319086, 35.1016880887344], [-118.568170965118, 35.1016832278987], [-118.56828980513, 35.1017780236369], [-118.568479948791, 35.1017683010663], [-118.568970162943, 35.1013477951647], [-118.568910742936, 35.1013064731153], [-118.569344509342, 35.1009929145914], [-118.568780019282, 35.1005164978382], [-118.568958279301, 35.1003730856494], [-118.569276176155, 35.1003536414075], [-118.569552226654, 35.1002404923049], [-118.570559646311, 35.1002102292188], [-118.571305366849, 35.1004095468631], [-118.571911449654, 35.1010123597327], [-118.572029056696, 35.1014370276967], [-118.571957264716, 35.1018797459536], [-118.571528190973, 35.1024586080783], [-118.570987469996, 35.1027454243619], [-118.570099142162, 35.1028596643421], [-118.569650520755, 35.1031975207491], [-118.569068206133, 35.1034721808965], [-118.568604730624, 35.103535377156], [-118.568013501922, 35.1034478749195], [-118.567463867763, 35.1031270327864], [-118.567276694564, 35.1028742468491], [-118.567122202727, 35.1023881192164]]], [[[-118.564478611399, 35.1127434186739], [-118.5683271207, 35.1101875364257], [-118.569536315848, 35.1113954437448], [-118.568226107049, 35.11225579367], [-118.568749239985, 35.1127978582346], [-118.567471474229, 35.1136113372934], [-118.566568291393, 35.1139955195776], [-118.565313342337, 35.1136175588034], [-118.564478611399, 35.1127434186739]]], [[[-118.574633989767, 35.1110366933888], [-118.574865727971, 35.1109812798622], [-118.576805194204, 35.1115587390446], [-118.576922846212, 35.1117191439234], [-118.576851541665, 35.1134164973735], [-118.576701803645, 35.1135419024369], [-118.574691032865, 35.1140289347875], [-118.574469991197, 35.1138802013103], [-118.573383760352, 35.1125568660066], [-118.573383760352, 35.1124166473105], [-118.574633989767, 35.1110366933888]]]]}}, {"type": "Feature", "properties": {"code": "CHCF", "name": "California Health Care Facility", "slug": "california-health-care-facility", "risk_category": "High", "population": 2251}, "geometry": {"type": "Polygon", "coordinates": [[[-121.193221031425, 37.9003221532448], [-121.187165303436, 37.8997629790783], [-121.186920218393, 37.8995393095915], [-121.186939254343, 37.8958963547331], [-121.187355660235, 37.895515641134], [-121.193340003638, 37.8955037440026], [-121.193649334449, 37.8956346142461], [-121.194279891404, 37.8970028041362], [-121.194291789435, 37.8986446334431], [-121.193506566175, 37.900191282102], [-121.193221031425, 37.9003221532448]]]}}, {"type": "Feature", "properties": {"code": "CIM", "name": "California Institution for Men", "slug": "california-institution-for-men", "risk_category": "Highest", "population": 2274}, "geometry": {"type": "MultiPolygon", "coordinates": [[[[-117.678680149369, 33.9887874600733], [-117.678626908605, 33.9887102083095], [-117.678586859996, 33.9843494928349], [-117.678753236373, 33.9843494928349], [-117.678788888197, 33.9842854413201], [-117.681691550824, 33.984270660063], [-117.681690957272, 33.9845682529226], [-117.682923920602, 33.9845657896795], [-117.682923920602, 33.9846495489376], [-117.683158629267, 33.9846052060654], [-117.683152687447, 33.9843342187493], [-117.684142028931, 33.9843933437779], [-117.684176967593, 33.9887452476951], [-117.678680149369, 33.9887874600733]]], [[[-117.684297510921, 33.9790804566978], [-117.684435366199, 33.9789385490748], [-117.687278015268, 33.9791592939663], [-117.68743963693, 33.9792972598607], [-117.687444390746, 33.9813233559881], [-117.687292275818, 33.9814416087433], [-117.684478147848, 33.9814534339289], [-117.684307018554, 33.9813233559881], [-117.684297510921, 33.9790804566978]]], [[[-117.680613475931, 33.9826044231556], [-117.68064199703, 33.9813864236446], [-117.681587963314, 33.9813824828154], [-117.681602222964, 33.9811104999496], [-117.682267726674, 33.9811065582211], [-117.682277234307, 33.9813745993583], [-117.682918968935, 33.9813785410868], [-117.683166155693, 33.9815322702981], [-117.683598733195, 33.9813706567305], [-117.683845919953, 33.9813706567305], [-117.683993281065, 33.9814810269279], [-117.684007541615, 33.9819382710344], [-117.683888701602, 33.9820644063473], [-117.68401229633, 33.982159007832], [-117.684002788698, 33.9825728893275], [-117.683831659404, 33.9827423827548], [-117.683118620228, 33.9827463253827], [-117.682899954569, 33.9823994541715], [-117.681839902989, 33.982395512443], [-117.681697294794, 33.9827699748545], [-117.680827386874, 33.982766033126], [-117.680613475931, 33.9826044231556]]]]}}, {"type": "Feature", "properties": {"code": "CIW", "name": "California Institution for Women", "slug": "california-institution-for-women", "risk_category": "Highest", "population": 1187}, "geometry": {"type": "Polygon", "coordinates": [[[-117.637669599972, 33.9527945566235], [-117.633752767376, 33.9528058530078], [-117.633718220819, 33.9527252449741], [-117.63469703574, 33.9498118300519], [-117.634720067377, 33.9494778820986], [-117.634627942625, 33.9494778820986], [-117.634604911887, 33.9493396958703], [-117.634720067377, 33.9492706027561], [-117.633867921967, 33.9463226421763], [-117.635998283694, 33.9463111272568], [-117.63652799607, 33.9467602298008], [-117.636666182298, 33.9466911366866], [-117.637810531831, 33.9475166531711], [-117.638944085901, 33.9482003843403], [-117.638872114057, 33.9511512227508], [-117.637669599972, 33.9527945566235]]]}}, {"type": "Feature", "properties": {"code": "CMF", "name": "California Medical Facility", "slug": "california-medical-facility", "risk_category": "Highest", "population": 2045}, "geometry": {"type": "Polygon", "coordinates": [[[-121.98057272715, 38.3306953776896], [-121.980317221662, 38.3307419895513], [-121.977411586775, 38.3294182081838], [-121.977343253588, 38.3292597260556], [-121.977129341746, 38.3292853630291], [-121.975349714718, 38.328483622821], [-121.975284352891, 38.3282808562765], [-121.976012247068, 38.3272763351348], [-121.97622615891, 38.3272297205752], [-121.976175652085, 38.3270782261792], [-121.976900823114, 38.3261198762314], [-121.977148009873, 38.326064683938], [-121.979497226116, 38.3271388242974], [-121.979562587943, 38.327292649736], [-121.979743819322, 38.327262350677], [-121.982114674153, 38.3283228078513], [-121.98218300734, 38.3285325666247], [-121.982408802824, 38.3284673082197], [-121.983508665592, 38.3289645128021], [-121.983570463406, 38.3291472343574], [-121.982857424231, 38.3301242281507], [-121.982653019122, 38.3301689757177], [-121.981388563332, 38.3295984431137], [-121.98057272715, 38.3306953776896]]]}}, {"type": "Feature", "properties": {"code": "CMC", "name": "California Men's Colony", "slug": "california-mens-colony", "risk_category": "Moderate", "population": 2172}, "geometry": {"type": "MultiPolygon", "coordinates": [[[[-120.699274067844, 35.3246932489943], [-120.702943196571, 35.3214738388467], [-120.703428607444, 35.3214809767657], [-120.706119778305, 35.3235867995912], [-120.703485714394, 35.3245147902255], [-120.702172251848, 35.3256926233159], [-120.70187957828, 35.3266063363134], [-120.701415582963, 35.3268633175881], [-120.700487593228, 35.3266348888891], [-120.700873066039, 35.3262708316336], [-120.699288344581, 35.3250644450682], [-120.699274067844, 35.3246932489943]]], [[[-120.69425651003, 35.3268655101352], [-120.694071120186, 35.3269159279278], [-120.692424000167, 35.3267045611666], [-120.692302783247, 35.3265649423183], [-120.692559476738, 35.3252230342157], [-120.692664056201, 35.3251125003417], [-120.692599883278, 35.3250407497309], [-120.69286251859, 35.3237017257541], [-120.693033647885, 35.3235737369384], [-120.694372974033, 35.3234767756327], [-120.695154999304, 35.3235954573645], [-120.696588683221, 35.3240360478254], [-120.696708473817, 35.3242098022407], [-120.696141310973, 35.3270749379581], [-120.695974934596, 35.3271660779522], [-120.694327813678, 35.3269527722527], [-120.69425651003, 35.3268655101352]]]]}}, {"type": "Feature", "properties": {"code": "CRC", "name": "California Rehabilitation Center", "slug": "california-rehabilitation-center", "risk_category": "High", "population": 2330}, "geometry": {"type": "Polygon", "coordinates": [[[-117.56872568874, 33.9309917787476], [-117.568592393924, 33.9303974096128], [-117.568021322626, 33.9299929017511], [-117.568015775608, 33.9282138583829], [-117.573000600797, 33.9272261518654], [-117.576565599723, 33.927488511086], [-117.576527895646, 33.9309922751734], [-117.56872568874, 33.9309917787476]]]}}, {"type": "Feature", "properties": {"code": "COR", "name": "California State Prison, Corcoran", "slug": "california-state-prison-corcoran", "risk_category": "Highest", "population": 2629}, "geometry": {"type": "Polygon", "coordinates": [[[-119.546449254629, 36.063687602401], [-119.544393325292, 36.0627221352184], [-119.544030864333, 36.0608392003688], [-119.544428977116, 36.0589081850647], [-119.546449254629, 36.0579426594263], [-119.548766632174, 36.0579234454107], [-119.551147391239, 36.0574578106295], [-119.553471898609, 36.0579266469972], [-119.553481406242, 36.0636062659165], [-119.553324536598, 36.0637407577298], [-119.551142637423, 36.0641903450084], [-119.548818130053, 36.0637023323968], [-119.546449254629, 36.063687602401]]]}}, {"type": "Feature", "properties": {"code": "LAC", "name": "California State Prison, Los Angeles County", "slug": "california-state-prison-los-angeles-county", "risk_category": "High", "population": 2949}, "geometry": {"type": "Polygon", "coordinates": [[[-118.232340838659, 34.6955778509371], [-118.232129067203, 34.6956968240493], [-118.230025623983, 34.6957634494237], [-118.229958998609, 34.6956944453424], [-118.229861441053, 34.6957682077366], [-118.22769137156, 34.6957586902114], [-118.227643783034, 34.6956873056247], [-118.227529569134, 34.6957610698176], [-118.225373777278, 34.6957658290298], [-118.225311911116, 34.695692064837], [-118.225209595247, 34.6957610698176], [-118.223112682005, 34.6956889549813], [-118.222878934715, 34.6955549398087], [-118.222223291172, 34.693864325878], [-118.22229857342, 34.6938468628425], [-118.222237648848, 34.6937498511747], [-118.223218161689, 34.6919927260835], [-118.225205935905, 34.6912113528217], [-118.225261888126, 34.6912618533519], [-118.225347107883, 34.6911823721688], [-118.227527666169, 34.6911844136298], [-118.227587627567, 34.6912748341663], [-118.22769137156, 34.6911920290889], [-118.229866200265, 34.6911901252241], [-118.229904271265, 34.6912662681239], [-118.230032761902, 34.6912234379114], [-118.232107651647, 34.6920895605848], [-118.233002328694, 34.6937623229729], [-118.232340838659, 34.6955778509371]]]}}, {"type": "Feature", "properties": {"code": "SAC", "name": "California State Prison, Sacramento", "slug": "california-state-prison-sacramento", "risk_category": "High", "population": 2131}, "geometry": {"type": "Polygon", "coordinates": [[[-121.157498609873, 38.6975904303541], [-121.155867826039, 38.6980174608372], [-121.155704215077, 38.6979440356887], [-121.1555378387, 38.6979857732249], [-121.153676767269, 38.6971362502378], [-121.153606414205, 38.6969685581525], [-121.15337443768, 38.6970101104283], [-121.151503424244, 38.6961731275878], [-121.151448282312, 38.6960276937231], [-121.151299969718, 38.695950524697], [-121.150742848703, 38.6943626016528], [-121.1508569349, 38.6942127116474], [-121.150710524371, 38.6940880512226], [-121.15070137287, 38.6924148436702], [-121.150858836066, 38.692284985164], [-121.150763764236, 38.6921342560911], [-121.151442815334, 38.6904851899396], [-121.151615370953, 38.6904851899396], [-121.151651022776, 38.6903672006858], [-121.153860166913, 38.6903672006858], [-121.153961180564, 38.6904901056339], [-121.154151324224, 38.6904970627893], [-121.155373710628, 38.6921653060841], [-121.153837111893, 38.6928665407583], [-121.153840676806, 38.6932245761533], [-121.153730156422, 38.693275591995], [-121.153805678789, 38.6939202359302], [-121.155180418442, 38.6945427988111], [-121.155248870339, 38.6947431461793], [-121.155505563831, 38.6946882362731], [-121.156859214381, 38.6952794712706], [-121.157253619259, 38.6952521732492], [-121.157562602932, 38.6953950107712], [-121.157900515996, 38.6953890824403], [-121.158950952025, 38.6958457932488], [-121.157790904826, 38.6973894768429], [-121.157604291005, 38.6974391517955], [-121.157498609873, 38.6975904303541]]]}}, {"type": "Feature", "properties": {"code": "SOL", "name": "California State Prison, Solano", "slug": "california-state-prison-solano", "risk_category": "High", "population": 3735}, "geometry": {"type": "Polygon", "coordinates": [[[-121.978886725842, 38.3234390133998], [-121.978744117647, 38.3236142903672], [-121.973191920071, 38.324479481343], [-121.972973255311, 38.3243676038819], [-121.972136622307, 38.3210857852808], [-121.97188943465, 38.3177553331421], [-121.972079579209, 38.3175949597397], [-121.97774586388, 38.3173413464261], [-121.977926499908, 38.317464424044], [-121.978145165567, 38.3206046875563], [-121.978886725842, 38.3234390133998]]]}}, {"type": "Feature", "properties": {"code": "SATF", "name": "California Substance Abuse Treatment Facility", "slug": "california-substance-abuse-treatment-facility", "risk_category": "Highest", "population": 5358}, "geometry": {"type": "Polygon", "coordinates": [[[-119.557293484007, 36.0556322983919], [-119.557144933991, 36.0557331780438], [-119.554902425906, 36.0558052344241], [-119.545415438971, 36.055800431145], [-119.540709381133, 36.0560646366737], [-119.538338525403, 36.0560646366737], [-119.537280850731, 36.0543688939094], [-119.538386060868, 36.0526587017377], [-119.540768801139, 36.0526683100945], [-119.542961395952, 36.0520485971651], [-119.5453084826, 36.051875653039], [-119.554797847343, 36.0518804572173], [-119.557049862161, 36.0519621246524], [-119.557222180359, 36.0521014413285], [-119.557632176783, 36.053845271742], [-119.557293484007, 36.0556322983919]]]}}, {"type": "Feature", "properties": {"code": "CAL", "name": "Calipatria State Prison", "slug": "calipatria-state-prison", "risk_category": "Lowest", "population": 2462}, "geometry": {"type": "MultiPolygon", "coordinates": [[[[-115.479895783563, 33.1638118198596], [-115.480130244016, 33.1636363090685], [-115.48905335333, 33.1636386302187], [-115.489277941024, 33.163773943113], [-115.489888534828, 33.1654578391081], [-115.48987425809, 33.1656577143321], [-115.489360452923, 33.1667435359855], [-115.488931991618, 33.1673780652455], [-115.487004627561, 33.1681918401814], [-115.482186220118, 33.1681775634439], [-115.480287410436, 33.1673852031647], [-115.479338005145, 33.1656220220387], [-115.479323728407, 33.1654792546639], [-115.479895783563, 33.1638118198596]]], [[[-115.4773392583, 33.1638201493804], [-115.477246459057, 33.1633918463567], [-115.477953158911, 33.1626922853208], [-115.47846712236, 33.1626994232398], [-115.478824040797, 33.1629920968079], [-115.478824040797, 33.1636274129748], [-115.478617027654, 33.1636202741564], [-115.47858133626, 33.1636987966622], [-115.478567058623, 33.1642056221918], [-115.477610516312, 33.164191344555], [-115.4773392583, 33.1638201493804]]]]}}, {"type": "Feature", "properties": {"code": "CEN", "name": "Centinela State Prison", "slug": "centinela-state-prison", "risk_category": "Lowest", "population": 2984}, "geometry": {"type": "Polygon", "coordinates": [[[-115.786668598877, 32.8257026386659], [-115.78465307428, 32.8247838858677], [-115.783840210357, 32.8230022767338], [-115.784591278265, 32.8211886751173], [-115.791431699813, 32.8213404752827], [-115.793532788607, 32.8214603180393], [-115.793722933167, 32.8215961390506], [-115.794302870881, 32.8233338351884], [-115.793323630581, 32.8250635075748], [-115.791227295603, 32.8258384542813], [-115.786668598877, 32.8257026386659]]]}}, {"type": "Feature", "properties": {"code": "CCWF", "name": "Central California Women's Facility", "slug": "central-california-womens-facility", "risk_category": "High", "population": 2040}, "geometry": {"type": "Polygon", "coordinates": [[[-120.156870898573, 37.0950335485594], [-120.154444153575, 37.0969784835702], [-120.151010971879, 37.0969895155537], [-120.148576642898, 37.0950601253246], [-120.148566012911, 37.0922882861755], [-120.150987364675, 37.0903766647513], [-120.154239911243, 37.0903828134162], [-120.154659805606, 37.0905661851813], [-120.156839007714, 37.0922856277796], [-120.156870898573, 37.0950335485594]]]}}, {"type": "Feature", "properties": {"code": "CTF", "name": "Correctional Training Facility", "slug": "correctional-training-facility", "risk_category": "Lowest", "population": 4225}, "geometry": {"type": "MultiPolygon", "coordinates": [[[[-121.378802176379, 36.4718637187357], [-121.378802176379, 36.4714585219933], [-121.378553087555, 36.4714585219933], [-121.378475842086, 36.4713913399385], [-121.378480595903, 36.4697208366473], [-121.378570913917, 36.4696176232547], [-121.38694555909, 36.4696181007948], [-121.387044195833, 36.4697055463739], [-121.387050257264, 36.4712802925515], [-121.386762071312, 36.4715024826535], [-121.386753158132, 36.471750951845], [-121.385517223441, 36.4729670079211], [-121.385077515215, 36.4732202507141], [-121.384013898722, 36.4736216163446], [-121.381468943237, 36.4736278279619], [-121.379889799375, 36.4729860249851], [-121.378802176379, 36.4718637187357]]], [[[-121.378164380782, 36.4633116858856], [-121.380049647573, 36.4612218170333], [-121.382417192, 36.4627855654016], [-121.380444238611, 36.4647731327739], [-121.378164380782, 36.4633116858856]]]]}}, {"type": "Feature", "properties": {"code": "FOL", "name": "Folsom State Prison", "slug": "folsom-state-prison", "risk_category": "Moderate", "population": 2777}, "geometry": {"type": "MultiPolygon", "coordinates": [[[[-121.16002814918, 38.6961141149745], [-121.161600400638, 38.6931923894173], [-121.161728748283, 38.6931005623412], [-121.161981875963, 38.6933343051341], [-121.163917778183, 38.6922101067111], [-121.166014113161, 38.6921767139842], [-121.166131765169, 38.6937906571132], [-121.16545200001, 38.6961339234419], [-121.165575593839, 38.6978810049045], [-121.165375943445, 38.6978921349141], [-121.16002814918, 38.6961141149745]]], [[[-121.159538122986, 38.6972633846975], [-121.159659475704, 38.6969707111295], [-121.160780201845, 38.6970920629484], [-121.161037183119, 38.6974204288098], [-121.161615392336, 38.6975846117405], [-121.161444070587, 38.6985126023748], [-121.160616018914, 38.6987124758002], [-121.160180577072, 38.6989266277617], [-121.159866488847, 38.6991550555614], [-121.159716582654, 38.6994691446853], [-121.159338247762, 38.6993906230788], [-121.159481016036, 38.6990479795806], [-121.159323971924, 38.6988623819934], [-121.158774316182, 38.6985697093247], [-121.159002743981, 38.6978772862079], [-121.159323971924, 38.6974204288098], [-121.159538122986, 38.6972633846975]]]]}}, {"type": "Feature", "properties": {"code": "HDSP", "name": "High Desert State Prison", "slug": "high-desert-state-prison", "risk_category": "Moderate", "population": 2719}, "geometry": {"type": "Polygon", "coordinates": [[[-120.507710175784, 40.410039226729], [-120.50746383169, 40.4098936597646], [-120.506857827127, 40.4081192344152], [-120.507882898677, 40.4063753266601], [-120.510184313255, 40.4054530476201], [-120.517727442567, 40.4055515575584], [-120.519690498018, 40.4068007752356], [-120.51973332823, 40.4087495530495], [-120.517916609564, 40.4101629527581], [-120.507710175784, 40.410039226729]]]}}, {"type": "Feature", "properties": {"code": "ISP", "name": "Ironwood State Prison", "slug": "ironwood-state-prison", "risk_category": "Lowest", "population": 2764}, "geometry": {"type": "MultiPolygon", "coordinates": [[[[-114.924338976263, 33.5631941727729], [-114.922292552759, 33.5623177843383], [-114.921390558827, 33.5605382418464], [-114.922128554189, 33.5587230115578], [-114.929014136093, 33.558720041097], [-114.931300614732, 33.5588151111285], [-114.931975625175, 33.5606531158487], [-114.931034413607, 33.5623960163631], [-114.92893807773, 33.5632327932589], [-114.924338976263, 33.5631941727729]]], [[[-114.918111252932, 33.5610377729749], [-114.918084909991, 33.5599864394227], [-114.919773643439, 33.5600059933819], [-114.919741916256, 33.5612935599499], [-114.919239580142, 33.5613199991187], [-114.919239580142, 33.5614759874269], [-114.918800696595, 33.5614786314338], [-114.91826399109, 33.5610556110277], [-114.918111252932, 33.5610377729749]]], [[[-114.921059792675, 33.5642132332542], [-114.920973962278, 33.5642097528778], [-114.920889357658, 33.5637973093983], [-114.920884069644, 33.5631707112594], [-114.922573504564, 33.5631759983737], [-114.92257157192, 33.5646232647519], [-114.921439283196, 33.5645851829599], [-114.921059792675, 33.5642132332542]]]]}}, {"type": "Feature", "properties": {"code": "KVSP", "name": "Kern Valley State Prison", "slug": "kern-valley-state-prison", "risk_category": "Moderate", "population": 3092}, "geometry": {"type": "MultiPolygon", "coordinates": [[[[-119.321829697982, 35.7623334946951], [-119.328603570598, 35.7622708128478], [-119.328734294252, 35.7623768887825], [-119.328882844268, 35.7699753947487], [-119.328734294252, 35.7700814598915], [-119.321954479815, 35.7701537770752], [-119.321799987979, 35.7700284268704], [-119.321675207045, 35.7624492131607], [-119.321829697982, 35.7623334946951]]], [[[-119.326221291679, 35.7725830635576], [-119.326149907992, 35.7712767398297], [-119.32751333867, 35.7712410484357], [-119.327534755125, 35.7713552623355], [-119.328220039423, 35.7713624002546], [-119.328212900605, 35.7715836901352], [-119.32846274396, 35.7715979668727], [-119.328484158617, 35.7720762389273], [-119.328398499091, 35.7720691001089], [-119.327963058149, 35.7725188177893], [-119.326221291679, 35.7725830635576]]]]}}, {"type": "Feature", "properties": {"code": "MCSP", "name": "Mule Creek State Prison", "slug": "mule-creek-state-prison", "risk_category": "Moderate", "population": 3761}, "geometry": {"type": "Polygon", "coordinates": [[[-120.951016904906, 38.3728003228766], [-120.950700791408, 38.3726130534497], [-120.949399493991, 38.3714335197412], [-120.949356712342, 38.3712099096097], [-120.950215923726, 38.3697452449471], [-120.950426270656, 38.3695551723334], [-120.954705693713, 38.3682656434447], [-120.95506221375, 38.3682880050874], [-120.956925028068, 38.3689911921898], [-120.957064664902, 38.3691705520794], [-120.957061694442, 38.3708057317991], [-120.956975534893, 38.3708756109207], [-120.956972564432, 38.3710549663137], [-120.955682558004, 38.3723579553554], [-120.955400907426, 38.3725049774228], [-120.953457875381, 38.3731003268187], [-120.953019356058, 38.3731198915698], [-120.951016904906, 38.3728003228766]]]}}, {"type": "Feature", "properties": {"code": "NKSP", "name": "North Kern State Prison", "slug": "north-kern-state-prison", "risk_category": "Moderate", "population": 2570}, "geometry": {"type": "MultiPolygon", "coordinates": [[[[-119.307528867663, 35.7795670609711], [-119.309548550725, 35.778615473925], [-119.311616364604, 35.7795294603164], [-119.31243636015, 35.7812764176726], [-119.312477953794, 35.7832479672199], [-119.310870644964, 35.7847152677954], [-119.308439181223, 35.7847557579719], [-119.306781364668, 35.7832923136894], [-119.306762350302, 35.7813892169389], [-119.307528867663, 35.7795670609711]]], [[[-119.313394571602, 35.7826379948476], [-119.313287495621, 35.7822810764106], [-119.313159004984, 35.7822810764106], [-119.313151867065, 35.7815458230813], [-119.313937089425, 35.7815386842629], [-119.313944228243, 35.7816314826069], [-119.31463665136, 35.7816314826069], [-119.314629511643, 35.7829378072341], [-119.313672969332, 35.7829449460524], [-119.313665831413, 35.7826951017976], [-119.313394571602, 35.7826379948476]]]]}}, {"type": "Feature", "properties": {"code": "PBSP", "name": "Pelican Bay State Prison", "slug": "pelican-bay-state-prison", "risk_category": "Moderate", "population": 2096}, "geometry": {"type": "MultiPolygon", "coordinates": [[[[-124.144559559376, 41.8529694472822], [-124.146936356028, 41.8522391609086], [-124.152079150732, 41.852250226167], [-124.153368563608, 41.8539077414492], [-124.153300231321, 41.8558241211863], [-124.152076180271, 41.8575191606808], [-124.146939327388, 41.8576165248828], [-124.144618979382, 41.8567756497765], [-124.144173329336, 41.854885853999], [-124.144559559376, 41.8529694472822]]], [[[-124.155337068951, 41.8519573241712], [-124.156136568048, 41.8519573241712], [-124.156127049624, 41.8526235734192], [-124.155717783449, 41.8533469287178], [-124.154680338127, 41.8533374111926], [-124.154689855652, 41.8521476809707], [-124.155346587375, 41.8520715380711], [-124.155337068951, 41.8519573241712]]]]}}, {"type": "Feature", "properties": {"code": "PVSP", "name": "Pleasant Valley State Prison", "slug": "pleasant-valley-state-prison", "risk_category": "Lowest", "population": 2992}, "geometry": {"type": "Polygon", "coordinates": [[[-120.246935400648, 36.1278368383994], [-120.249092345435, 36.1270449376738], [-120.251211557367, 36.1275639939832], [-120.251377931946, 36.1277463701988], [-120.251496771958, 36.1295317169153], [-120.251568075606, 36.1333758339276], [-120.251502713779, 36.1351514562747], [-120.251354164663, 36.1353194181566], [-120.24924475714, 36.1359000843215], [-120.247056915244, 36.1351495362222], [-120.246008747306, 36.1334103876793], [-120.245940117343, 36.129583788561], [-120.246935400648, 36.1278368383994]]]}}, {"type": "Feature", "properties": {"code": "RJD", "name": "Richard J. Donovan Correctional Facility", "slug": "richard-j-donovan-correctional-facility", "risk_category": "High", "population": 3592}, "geometry": {"type": "MultiPolygon", "coordinates": [[[[-116.933431118152, 32.5877382148468], [-116.932309268758, 32.5864405120201], [-116.932432862587, 32.5862923172367], [-116.931848171056, 32.5859358448634], [-116.931710315778, 32.5860720256035], [-116.929908703924, 32.5855713622286], [-116.928682276866, 32.5841534659098], [-116.928639494317, 32.5839371753604], [-116.92972331408, 32.5826714623181], [-116.929808878277, 32.5827155219039], [-116.930041805385, 32.582487211016], [-116.930127368683, 32.5825352761821], [-116.930317513243, 32.5823109699753], [-116.930132123399, 32.5821948117412], [-116.931154146247, 32.580997166586], [-116.931410839738, 32.5809691293219], [-116.933397842337, 32.5815098727825], [-116.934505430281, 32.5827956308137], [-116.934381835553, 32.5829558477342], [-116.934980789432, 32.5833243476406], [-116.935104383261, 32.5831841577228], [-116.936915501849, 32.5836808299064], [-116.93813717599, 32.5850987316212], [-116.938179957639, 32.5853270371131], [-116.937102068905, 32.5865916152109], [-116.936811516838, 32.5864733894354], [-116.936611866444, 32.5866986857957], [-116.93681508265, 32.5869179737855], [-116.935684320975, 32.5882548870534], [-116.935408613117, 32.5882949392601], [-116.933431118152, 32.5877382148468]]], [[[-116.937867844326, 32.5836824306997], [-116.937368157614, 32.5833826192126], [-116.937282497189, 32.5834968331124], [-116.937011239177, 32.5833397881008], [-116.937089760784, 32.5832541276759], [-116.936597211992, 32.5828972092389], [-116.936875608822, 32.582583120115], [-116.937239666977, 32.5826545038024], [-116.937189697946, 32.5825045976092], [-116.937825014113, 32.5824046604468], [-116.937896397801, 32.5825688433775], [-116.938032027256, 32.5825402890032], [-116.93806771865, 32.5826973340148], [-116.938438914724, 32.5826188124083], [-116.938603097655, 32.5832684053127], [-116.938510299311, 32.5833754803942], [-116.938153379974, 32.5833754803942], [-116.937867844326, 32.5836824306997]]]]}}, {"type": "Feature", "properties": {"code": "SVSP", "name": "Salinas Valley State Prison", "slug": "salinas-valley-state-prison", "risk_category": "Lowest", "population": 2387}, "geometry": {"type": "MultiPolygon", "coordinates": [[[[-121.372385963242, 36.4837708703295], [-121.370389453011, 36.4830370397277], [-121.369312763973, 36.4813085013863], [-121.369811892205, 36.4794279893103], [-121.374435950758, 36.4750246612592], [-121.376774718678, 36.4746577063881], [-121.378632185627, 36.4758503036486], [-121.378913837104, 36.4777739040425], [-121.372656918182, 36.4837278719438], [-121.372385963242, 36.4837708703295]]], [[[-121.380637014587, 36.4752788528368], [-121.381451068312, 36.4749682800621], [-121.381968021107, 36.4753409672119], [-121.382074976579, 36.4757757669382], [-121.381837296554, 36.4761436732919], [-121.380916288256, 36.4770610402348], [-121.379656586282, 36.4762296763585], [-121.380637014587, 36.4752788528368]]]]}}, {"type": "Feature", "properties": {"code": "SQ", "name": "San Quentin Rehabilitation Center", "slug": "san-quentin-rehabilitation-center", "risk_category": "Moderate", "population": 2688}, "geometry": {"type": "Polygon", "coordinates": [[[-122.494002876032, 37.9419530432984], [-122.493179910025, 37.9425036523218], [-122.492645130868, 37.9420537934479], [-122.492642160407, 37.9415758136729], [-122.488800661321, 37.9415664418379], [-122.488800661321, 37.9405753277892], [-122.487799436195, 37.9405706423213], [-122.487629256585, 37.9404211848898], [-122.487605489302, 37.9390978028214], [-122.487864559702, 37.9382130354033], [-122.488199687566, 37.9378325070646], [-122.488917480557, 37.9373151360847], [-122.489136146216, 37.9372551504049], [-122.489369072425, 37.9373188853583], [-122.48998703977, 37.9378662487284], [-122.489989416678, 37.9379712220943], [-122.490148662331, 37.9380087130317], [-122.490419617271, 37.9389515919424], [-122.49108749699, 37.938962838864], [-122.491043604679, 37.9405662689182], [-122.492688348688, 37.9405662689182], [-122.493353852398, 37.9399214523132], [-122.494003351773, 37.9400814066317], [-122.494002876032, 37.9419530432984]]]}}, {"type": "Feature", "properties": {"code": "SCC", "name": "Sierra Conservation Center", "slug": "sierra-conservation-center", "risk_category": "Lowest", "population": 4035}, "geometry": {"type": "MultiPolygon", "coordinates": [[[[-120.533905324371, 37.8884622808097], [-120.535725950592, 37.8883534853251], [-120.535849544421, 37.8884360206059], [-120.53627261429, 37.8901429671243], [-120.535968384433, 37.8918948914362], [-120.535830530055, 37.8919699191765], [-120.534009902935, 37.8917448350562], [-120.533886310005, 37.891643547112], [-120.53386729474, 37.890705688217], [-120.533990888569, 37.890570636126], [-120.533857788006, 37.8901917373589], [-120.533819759274, 37.8885673252219], [-120.533905324371, 37.8884622808097]]], [[[-120.537650740789, 37.8947901166706], [-120.536320923172, 37.893602836202], [-120.536499182291, 37.8928206841273], [-120.53745079272, 37.8924260867945], [-120.537040795396, 37.8918633791916], [-120.537504270905, 37.8917283288993], [-120.53746653895, 37.8915705347524], [-120.538189084858, 37.891514264172], [-120.538379229418, 37.8924221009992], [-120.538778531104, 37.8923695823904], [-120.540119045258, 37.8934537214122], [-120.540032292157, 37.8944750113127], [-120.538595518169, 37.8943680999079], [-120.538203346307, 37.8944243686897], [-120.537650740789, 37.8947901166706]]]]}}, {"type": "Feature", "properties": {"code": "VSP", "name": "Valley State Prison", "slug": "valley-state-prison", "risk_category": "High", "population": 3148}, "geometry": {"type": "Polygon", "coordinates": [[[-120.157242539811, 37.1087559610189], [-120.15373082212, 37.1087673338454], [-120.151327880377, 37.1068452973726], [-120.151320749653, 37.1041213803974], [-120.153677344834, 37.1022077561831], [-120.157053585055, 37.1021906951445], [-120.157235409986, 37.1023413981371], [-120.15740653928, 37.1023413981371], [-120.159634786816, 37.1041014766019], [-120.159613396441, 37.1068225508201], [-120.157242539811, 37.1087559610189]]]}}, {"type": "Feature", "properties": {"code": "WSP", "name": "Wasco State Prison", "slug": "wasco-state-prison", "risk_category": "Moderate", "population": 3676}, "geometry": {"type": "MultiPolygon", "coordinates": [[[[-119.40601988421, 35.5919944806608], [-119.408019364902, 35.5910208422381], [-119.41008420742, 35.5919509930439], [-119.410854686295, 35.5936526182738], [-119.410919681198, 35.5956792593904], [-119.409374138706, 35.5971451444329], [-119.406929008867, 35.5971910449308], [-119.40526228003, 35.5957367170759], [-119.405235541387, 35.593820927294], [-119.40601988421, 35.5919944806608]]], [[[-119.41308804198, 35.5953758623062], [-119.412138636689, 35.5953615846694], [-119.412124359951, 35.5951545724256], [-119.411860239858, 35.5950689111014], [-119.411753163877, 35.5947334073209], [-119.411610397402, 35.5947262694018], [-119.411624674139, 35.5939910160726], [-119.412552662975, 35.5940195686482], [-119.41308090406, 35.5942194438723], [-119.41308804198, 35.5953758623062]]]]}}]}